GPS BIIR-08             
1 27663U 03005A   26064.41514012  .00000009  00000+0  00000+0 0  9995
2 27663  54.9071 219.0894 0148737  52.7243 318.2187  2.00566237169230
GPS BIIR-11             
1 28190U 04009A   26064.35100823 -.00000023  00000+0  00000+0 0  9997
2 28190  54.9151 279.8814 0111001 169.0892 311.4248  2.00558092160860
GPS BIIR-13             
1 28474U 04045A   26064.34269096 -.00000094  00000+0  00000+0 0  9997
2 28474  55.1942 329.0814 0170827 312.8671 225.0992  2.00573478156347
GPS BIIR-14M            
1 28874U 05038A   26064.65960726 -.00000020  00000+0  00000+0 0  9995
2 28874  54.9620 277.3543 0128771 295.3628  71.8248  2.00572953149769
METEOSAT-9 (MSG-2)      
1 28912U 05049B   26064.59230808  .00000119  00000+0  00000+0 0  9992
2 28912   9.1276  55.1704 0001671 223.3348 143.8053  1.00277983  5962
GPS BIIR-16M            
1 29601U 06052A   26064.21100884  .00000007  00000+0  00000+0 0  9998
2 29601  54.9569 218.1252 0087858  89.3737 271.5836  2.00551710141326
GPS BIIR-17M            
1 32260U 07047A   26064.01919554 -.00000008  00000+0  00000+0 0  9990
2 32260  54.0162  84.3580 0163608  85.9640 275.9610  2.00560713134728
GPS BIIR-18M            
1 32384U 07062A   26064.33725213 -.00000021  00000+0  00000+0 0  9991
2 32384  55.1141 278.3260 0032949 160.6805 197.0086  2.00553612133428
GOES 14                 
1 35491U 09033A   26064.62307487  .00000118  00000+0  00000+0 0  9990
2 35491   1.4225  84.4036 0001785 254.2785 250.0824  1.00099736  5558
GOES 15                 
1 36411U 10008A   26064.66710175  .00000014  00000+0  00000+0 0  9998
2 36411   1.0120  85.1222 0001980  18.8258   3.0758  1.00269602 58609
GSAT0101 (GALILEO-PFM)  
1 37846U 11060A   26053.46432651 -.00000082  00000+0  00000+0 0  9992
2 37846  57.0318 344.8758 0003975 357.0591   2.9533  1.70475478 89166
GSAT0102 (GALILEO-FM2)  
1 37847U 11060B   26060.06318653 -.00000106  00000+0  00000+0 0  9999
2 37847  57.0301 344.6971 0005422 341.2092 154.1953  1.70475778 89286
LUCH 5A                 
1 37951U 11074B   26064.33107759 -.00000052  00000+0  00000+0 0  9997
2 37951   8.4896  75.3325 0003934 246.3674 127.6589  1.00275722 52010
METEOSAT-10 (MSG-3)     
1 38552U 12035B   26064.65462169 -.00000011  00000+0  00000+0 0  9992
2 38552   4.4267  61.4584 0002522 281.0532  56.7950  1.00267196 49814
SARSAT 13 (METOP-B)     
1 38771U 12049A   26064.71430968  .00000168  00000+0  96564-4 0  9996
2 38771  98.6650 118.2136 0001198 287.7658  72.3389 14.21443239698565
GPS BIIF-3              
1 38833U 12053A   26064.11552350  .00000009  00000+0  00000+0 0  9993
2 38833  53.5659 147.8643 0176939  64.7787 297.0919  2.00565848 97356
GSAT0103 (GALILEO-FM3)  
1 38857U 12055A   26063.47673480  .00000012  00000+0  00000+0 0  9991
2 38857  55.7384 104.4182 0005407 285.3640  74.6606  1.70473427 83228
GPS BIIF-4              
1 39166U 13023A   26063.98037619 -.00000016  00000+0  00000+0 0  9990
2 39166  54.5857 273.2171 0141620  49.9246 311.3385  2.00564217 93791
INSAT-3D                
1 39216U 13038B   26064.71833576 -.00000345  00000+0  00000+0 0  9995
2 39216   1.6588  83.8964 0001722 245.4836 222.1574  1.00272923 46046
GPS BIIF-5              
1 39533U 14008A   26064.47751616  .00000008  00000+0  00000+0 0  9997
2 39533  53.6378 153.5513 0082337 228.3363 130.9939  2.00553167 87604
LUCH 5V                 
1 39727U 14023A   26064.60201479 -.00000274  00000+0  00000+0 0  9997
2 39727   4.8780  70.7644 0003060 282.1419 121.8839  1.00271530 43324
GPS BIIF-6              
1 39741U 14026A   26064.75554910 -.00000099  00000+0  00000+0 0  9998
2 39741  56.5458 335.5470 0039852 324.6035  35.1692  2.00568644 86461
GPS BIIF-7              
1 40105U 14045A   26063.84593997  .00000005  00000+0  00000+0 0  9998
2 40105  55.2815  92.6206 0031508 120.4743 239.9033  2.00551558 83989
GSAT0201 (GALILEO 5)    
1 40128U 14050A   26062.23675925 -.00000027  00000+0  00000+0 0  9998
2 40128  48.9889 277.7718 1657553 175.2875 186.5034  1.85520013 76352
GSAT0202 (GALILEO 6)    
1 40129U 14050B   26061.95370111 -.00000024  00000+0  00000+0 0  9993
2 40129  49.0058 276.8679 1658464 176.0142 185.5046  1.85520711 78514
GPS BIIF-8              
1 40294U 14068A   26064.22260262 -.00000079  00000+0  00000+0 0  9993
2 40294  56.9201  34.9602 0062818  68.0542 292.5966  2.00569928 83122
GLONASS-K 2             
1 40315U 14075A   26060.84023701 -.00000015  00000+0  00000+0 0  9994
2 40315  63.6170 194.0851 0020735 205.7160 154.1408  2.13101099 87569
GPS BIIF-9              
1 40534U 15013A   26064.35398615  .00000005  00000+0  00000+0 0  9997
2 40534  53.1861 208.4703 0108751  39.7984 320.9422  2.00557561 79748
GSAT0203 (GALILEO 7)    
1 40544U 15017A   26058.52158611 -.00000103  00000+0  00000+0 0  9994
2 40544  56.8234 344.5881 0005161 295.0116  64.9415  1.70475495 67337
GSAT0204 (GALILEO 8)    
1 40545U 15017B   26058.19060141 -.00000102  00000+0  00000+0 0  9997
2 40545  56.8295 344.6151 0004389 286.3298  73.6287  1.70475370 30371
GPS BIIF-10             
1 40730U 15033A   26064.51449839 -.00000015  00000+0  00000+0 0  9992
2 40730  54.0638 271.3591 0114524  29.0017 331.6534  2.00561575 77916
METEOSAT-11 (MSG-4)     
1 40732U 15034A   26064.65635504  .00000056  00000+0  00000+0 0  9990
2 40732   2.9407  71.6729 0001808 270.8696  66.5022  1.00266494  6174
GSAT0205 (GALILEO 9)    
1 40889U 15045A   26043.95434207  .00000078  00000+0  00000+0 0  9996
2 40889  53.6403 225.6057 0359599  59.9658 303.5577  1.67410800 64211
GSAT0206 (GALILEO 10)   
1 40890U 15045B   26061.69895769  .00000010  00000+0  00000+0 0  9999
2 40890  54.9811 224.5416 0003832  50.0037 309.9714  1.70473640 65226
GPS BIIF-11             
1 41019U 15062A   26064.57330864 -.00000079  00000+0  00000+0 0  9998
2 41019  56.8937  34.8029 0111452 231.5057 127.4773  2.00567091 75753
ELEKTRO-L 2             
1 41105U 15074A   26064.56703858 -.00000122  00000+0  00000+0 0  9992
2 41105   6.4339  71.7988 0003378 239.1004  42.0209  1.00270857 37465
GSAT0209 (GALILEO 12)   
1 41174U 15079A   26063.04029836  .00000013  00000+0  00000+0 0  9990
2 41174  55.7590 104.1453 0004747 323.4357  36.6173  1.70474529 62987
GSAT0208 (GALILEO 11)   
1 41175U 15079B   26062.08735472  .00000015  00000+0  00000+0 0  9996
2 41175  55.7569 104.1685 0004163 323.7694  36.2890  1.70474318 63383
GPS BIIF-12             
1 41328U 16007A   26064.16012979  .00000004  00000+0  00000+0 0  9997
2 41328  55.4561  93.5827 0095453 246.0235 113.0379  2.00556727 73758
GSAT0211 (GALILEO 14)   
1 41549U 16030A   26063.97104929  .00000014  00000+0  00000+0 0  9994
2 41549  55.1315 224.5579 0003586  25.2753 334.6794  1.70473864 60894
GSAT0210 (GALILEO 13)   
1 41550U 16030B   26064.22832682  .00000015  00000+0  00000+0 0  9990
2 41550  55.1285 224.5491 0001188 194.8212 165.1129  1.70473971 60892
INSAT-3DR               
1 41752U 16054A   26064.66918175 -.00000084  00000+0  00000+0 0  9997
2 41752   0.0506  95.8108 0013138 186.1953 196.2787  1.00272590 34780
GSAT0207 (GALILEO 15)   
1 41859U 16069A   26059.22748061  .00000008  00000+0  00000+0 0  9997
2 41859  55.4267 104.1007 0005031 309.1503  50.8842  1.70474383 57546
GSAT0212 (GALILEO 16)   
1 41860U 16069B   26062.01395955  .00000014  00000+0  00000+0 0  9997
2 41860  55.4261 104.0186 0003622 335.7588  24.3106  1.70474657 57847
GSAT0213 (GALILEO 17)   
1 41861U 16069C   26058.27531726  .00000004  00000+0  00000+0 0  9998
2 41861  55.4260 104.1303 0005130 291.6331  68.3872  1.70474834 57644
GSAT0214 (GALILEO 18)   
1 41862U 16069D   26059.00795760  .00000007  00000+0  00000+0 0  9994
2 41862  55.4250 104.1026 0004132 296.1582  63.8775  1.70474701 57785
GOES 16                 
1 41866U 16071A   26064.63382161 -.00000098  00000+0  00000+0 0  9994
2 41866   0.1410  89.5903 0002454 220.5452 336.6996  1.00271863 34065
GSAT-17                 
1 42815U 17040B   26064.31634419 -.00000266  00000+0  00000+0 0  9994
2 42815   0.0381 296.1388 0004948 351.8585  82.4276  1.00269840 31745
GSAT0215 (GALILEO 19)   
1 43055U 17079A   26062.43085966  .00000010  00000+0  00000+0 0  9997
2 43055  55.1080 224.4135 0000631  13.1955 346.7446  1.70474475 51181
GSAT0216 (GALILEO 20)   
1 43056U 17079B   26060.96235113  .00000013  00000+0  00000+0 0  9998
2 43056  55.1088 224.4540 0001688 322.1798  37.7539  1.70474524 51175
GSAT0217 (GALILEO 21)   
1 43057U 17079C   26064.11599664  .00000014  00000+0  00000+0 0  9995
2 43057  55.1079 224.3651 0002088 356.0140   3.9214  1.70474546 51214
GSAT0218 (GALILEO 22)   
1 43058U 17079D   26063.74946031  .00000013  00000+0  00000+0 0  9997
2 43058  55.1048 224.3730 0001921 303.9467  55.9718  1.70474529 51236
GOES 17                 
1 43226U 18022A   26064.63676828 -.00000189  00000+0  00000+0 0  9991
2 43226   0.6713  87.5289 0002179 223.6197 351.9387  1.00270245 29383
GSAT0221 (GALILEO 25)   
1 43564U 18060A   26059.54670036 -.00000105  00000+0  00000+0 0  9995
2 43564  57.2051 344.7173 0005804 306.7848  53.1689  1.70475369 47315
GSAT0222 (GALILEO 26)   
1 43565U 18060B   26055.66007047 -.00000092  00000+0  00000+0 0  9996
2 43565  57.2093 344.8256 0004435 285.4820  74.4799  1.70474973 47292
GSAT0219 (GALILEO 23)   
1 43566U 18060C   26053.53475141 -.00000082  00000+0  00000+0 0  9994
2 43566  57.2094 344.8846 0005774 308.6957  51.2673  1.70475208 47235
GSAT0220 (GALILEO 24)   
1 43567U 18060D   26058.44840234 -.00000102  00000+0  00000+0 0  9992
2 43567  57.2075 344.7516 0005301 308.5821  51.3768  1.70475159 47302
BEIDOU-3 M13            
1 43622U 18072A   26063.82956810 -.00000029  00000+0  00000+0 0  9991
2 43622  56.5333  66.1018 0008916 307.8246  52.1164  1.86230808 50718
BEIDOU-3 M14            
1 43623U 18072B   26063.69502611 -.00000028  00000+0  00000+0 0  9992
2 43623  56.5350  66.1003 0006376 328.8150  31.1695  1.86230841 50709
